start=new Date('2023-06-27T00:00:00.000Z').valueOf();
sats=[{"REF_FRAME":"TEME","CLASSIFICATION_TYPE":"U","RA_OF_ASC_NODE":"257.6075","TLE_LINE2":"2 55949  69.9988 257.6075 0002639 265.0679  95.0216 15.69930050 16356","FILE":"3943660","EPOCH":"2023-06-26T14:03:10.071936","BSTAR":"0.00001521300000","PERIOD":"91.724","MEAN_MOTION":"15.69930050","MEAN_ANOMALY":"95.0216","NORAD_CAT_ID":"55949","DECAY_DATE":null,"ARG_OF_PERICENTER":"265.0679","ELEMENT_SET_NO":"999","OBJECT_NAME":"STARLINK-5899","REV_AT_EPOCH":"1635","TLE_LINE1":"1 55949U 23037AM  23177.58553324  .00001617  00000-0  15213-4 0  9993","OBJECT_TYPE":"PAYLOAD","LAUNCH_DATE":"2023-03-17","CENTER_NAME":"EARTH","SEMIMAJOR_AXIS":"6737.234","TIME_SYSTEM":"UTC","ECCENTRICITY":"0.00026390","APOAPSIS":"360.877","SITE":"AFWTR","PERIAPSIS":"357.321","MEAN_MOTION_DOT":"0.00001617","OBJECT_ID":"2023-037AM","INCLINATION":"69.9988","GP_ID":"234574440","MEAN_ELEMENT_THEORY":"SGP4","MEAN_MOTION_DDOT":"0.0000000000000","RCS_SIZE":"LARGE","COUNTRY_CODE":"US","EPHEMERIS_TYPE":"0"},{"MEAN_MOTION_DOT":"-0.00000641","PERIAPSIS":"356.466","SITE":"AFWTR","ECCENTRICITY":"0.00039400","APOAPSIS":"361.775","TIME_SYSTEM":"UTC","SEMIMAJOR_AXIS":"6737.255","LAUNCH_DATE":"2023-03-17","CENTER_NAME":"EARTH","OBJECT_TYPE":"PAYLOAD","REV_AT_EPOCH":"1631","TLE_LINE1":"1 55950U 23037AN  23177.33025002 -.00000641  00000-0 -35557-5 0  9997","EPHEMERIS_TYPE":"0","COUNTRY_CODE":"US","RCS_SIZE":"LARGE","MEAN_ELEMENT_THEORY":"SGP4","MEAN_MOTION_DDOT":"0.0000000000000","GP_ID":"234567204","INCLINATION":"69.9973","OBJECT_ID":"2023-037AN","BSTAR":"-0.00000355570000","EPOCH":"2023-06-26T07:55:33.601728","TLE_LINE2":"2 55950  69.9973 258.3215 0003940 277.3027  82.7721 15.69922741 16313","RA_OF_ASC_NODE":"258.3215","FILE":"3943367","CLASSIFICATION_TYPE":"U","REF_FRAME":"TEME","OBJECT_NAME":"STARLINK-5911","ELEMENT_SET_NO":"999","ARG_OF_PERICENTER":"277.3027","DECAY_DATE":null,"NORAD_CAT_ID":"55950","MEAN_ANOMALY":"82.7721","MEAN_MOTION":"15.69922741","PERIOD":"91.724"},{"EPOCH":"2023-06-25T22:00:01.999584","BSTAR":"-0.01304500000000","CLASSIFICATION_TYPE":"U","TLE_LINE2":"2 55951  69.9993 259.6210 0003436 272.5444 153.9077 15.58817597 16242","RA_OF_ASC_NODE":"259.6210","FILE":"3942761","REF_FRAME":"TEME","ELEMENT_SET_NO":"999","ARG_OF_PERICENTER":"272.5444","OBJECT_NAME":"STARLINK-5908","NORAD_CAT_ID":"55951","MEAN_ANOMALY":"153.9077","DECAY_DATE":null,"MEAN_MOTION":"15.58817597","PERIOD":"92.378","SITE":"AFWTR","MEAN_MOTION_DOT":"-0.00919641","PERIAPSIS":"388.754","SEMIMAJOR_AXIS":"6769.215","TIME_SYSTEM":"UTC","ECCENTRICITY":"0.00034360","APOAPSIS":"393.406","OBJECT_TYPE":"PAYLOAD","REV_AT_EPOCH":"1624","TLE_LINE1":"1 55951U 23037AP  23176.91668981 -.00919641  00000-0 -13045-1 0  9993","LAUNCH_DATE":"2023-03-17","CENTER_NAME":"EARTH","EPHEMERIS_TYPE":"0","COUNTRY_CODE":"US","RCS_SIZE":"LARGE","GP_ID":"234552328","MEAN_ELEMENT_THEORY":"SGP4","MEAN_MOTION_DDOT":"0.0000000000000","OBJECT_ID":"2023-037AP","INCLINATION":"69.9993"},{"GP_ID":"234574276","MEAN_ELEMENT_THEORY":"SGP4","MEAN_MOTION_DDOT":"0.0000000000000","OBJECT_ID":"2023-037AQ","INCLINATION":"69.9978","EPHEMERIS_TYPE":"0","RCS_SIZE":"LARGE","COUNTRY_CODE":"US","TLE_LINE1":"1 55952U 23037AQ  23177.64916146 -.00001545  00000-0 -11086-4 0  9995","REV_AT_EPOCH":"1636","OBJECT_TYPE":"PAYLOAD","LAUNCH_DATE":"2023-03-17","CENTER_NAME":"EARTH","SITE":"AFWTR","PERIAPSIS":"357.010","MEAN_MOTION_DOT":"-0.00001545","SEMIMAJOR_AXIS":"6737.293","TIME_SYSTEM":"UTC","ECCENTRICITY":"0.00031880","APOAPSIS":"361.305","PERIOD":"91.725","MEAN_MOTION":"15.69909624","ARG_OF_PERICENTER":"271.8090","ELEMENT_SET_NO":"999","OBJECT_NAME":"STARLINK-5893","MEAN_ANOMALY":"88.2741","NORAD_CAT_ID":"55952","DECAY_DATE":null,"REF_FRAME":"TEME","EPOCH":"2023-06-26T15:34:47.550144","BSTAR":"-0.00001108600000","CLASSIFICATION_TYPE":"U","TLE_LINE2":"2 55952  69.9978 257.4275 0003188 271.8090  88.2741 15.69909624 16362","RA_OF_ASC_NODE":"257.4275","FILE":"3943693"},{"NORAD_CAT_ID":"55953","MEAN_ANOMALY":"94.9666","DECAY_DATE":null,"ARG_OF_PERICENTER":"265.1135","ELEMENT_SET_NO":"999","OBJECT_NAME":"STARLINK-5889","PERIOD":"91.724","MEAN_MOTION":"15.69923732","CLASSIFICATION_TYPE":"U","RA_OF_ASC_NODE":"259.3986","TLE_LINE2":"2 55953  69.9980 259.3986 0003459 265.1135  94.9666 15.69923732 16257","FILE":"3943113","EPOCH":"2023-06-25T22:45:48.252960","BSTAR":"0.00000481630000","REF_FRAME":"TEME","RCS_SIZE":"LARGE","COUNTRY_CODE":"US","EPHEMERIS_TYPE":"0","OBJECT_ID":"2023-037AR","INCLINATION":"69.9980","GP_ID":"234560556","MEAN_MOTION_DDOT":"0.0000000000000","MEAN_ELEMENT_THEORY":"SGP4","TIME_SYSTEM":"UTC","SEMIMAJOR_AXIS":"6737.252","ECCENTRICITY":"0.00034590","APOAPSIS":"361.448","SITE":"AFWTR","PERIAPSIS":"356.787","MEAN_MOTION_DOT":"0.00000366","REV_AT_EPOCH":"1625","TLE_LINE1":"1 55953U 23037AR  23176.94847515  .00000366  00000-0  48163-5 0  9996","OBJECT_TYPE":"PAYLOAD","CENTER_NAME":"EARTH","LAUNCH_DATE":"2023-03-17"},{"EPHEMERIS_TYPE":"0","RCS_SIZE":"LARGE","COUNTRY_CODE":"US","GP_ID":"234573953","MEAN_MOTION_DDOT":"0.0000000000000","MEAN_ELEMENT_THEORY":"SGP4","OBJECT_ID":"2023-037AS","INCLINATION":"70.0012","SITE":"AFWTR","PERIAPSIS":"357.087","MEAN_MOTION_DOT":"-0.00004657","TIME_SYSTEM":"UTC","SEMIMAJOR_AXIS":"6737.300","APOAPSIS":"361.244","ECCENTRICITY":"0.00030850","TLE_LINE1":"1 55954U 23037AS  23177.64810088 -.00004657  00000-0 -37013-4 0  9990","REV_AT_EPOCH":"1636","OBJECT_TYPE":"PAYLOAD","CENTER_NAME":"EARTH","LAUNCH_DATE":"2023-03-17","ELEMENT_SET_NO":"999","ARG_OF_PERICENTER":"275.2734","OBJECT_NAME":"STARLINK-5892","MEAN_ANOMALY":"84.8110","NORAD_CAT_ID":"55954","DECAY_DATE":null,"PERIOD":"91.725","MEAN_MOTION":"15.69906898","EPOCH":"2023-06-26T15:33:15.916032","BSTAR":"-0.00003701300000","CLASSIFICATION_TYPE":"U","TLE_LINE2":"2 55954  70.0012 257.4248 0003085 275.2734  84.8110 15.69906898 16367","FILE":"3943660","RA_OF_ASC_NODE":"257.4248","REF_FRAME":"TEME"},{"PERIOD":"91.724","MEAN_MOTION":"15.69923070","DECAY_DATE":null,"NORAD_CAT_ID":"55955","MEAN_ANOMALY":"97.1357","OBJECT_NAME":"STARLINK-5878","ELEMENT_SET_NO":"999","ARG_OF_PERICENTER":"262.9515","REF_FRAME":"TEME","TLE_LINE2":"2 55955  69.9990 258.3207 0002847 262.9515  97.1357 15.69923070 16316","FILE":"3943367","RA_OF_ASC_NODE":"258.3207","CLASSIFICATION_TYPE":"U","BSTAR":"-0.00000889870000","EPOCH":"2023-06-26T07:55:15.808512","INCLINATION":"69.9990","OBJECT_ID":"2023-037AT","MEAN_ELEMENT_THEORY":"SGP4","MEAN_MOTION_DDOT":"0.0000000000000","GP_ID":"234566697","RCS_SIZE":"LARGE","COUNTRY_CODE":"US","EPHEMERIS_TYPE":"0","LAUNCH_DATE":"2023-03-17","CENTER_NAME":"EARTH","TLE_LINE1":"1 55955U 23037AT  23177.33004408 -.00001282  00000-0 -88987-5 0  9996","REV_AT_EPOCH":"1631","OBJECT_TYPE":"PAYLOAD","ECCENTRICITY":"0.00028470","APOAPSIS":"361.037","TIME_SYSTEM":"UTC","SEMIMAJOR_AXIS":"6737.254","PERIAPSIS":"357.201","MEAN_MOTION_DOT":"-0.00001282","SITE":"AFWTR"},{"OBJECT_NAME":"STARLINK-5883","ELEMENT_SET_NO":"999","ARG_OF_PERICENTER":"266.9391","DECAY_DATE":null,"MEAN_ANOMALY":"93.1472","NORAD_CAT_ID":"55956","PERIOD":"91.725","MEAN_MOTION":"15.69906292","BSTAR":"-0.00001280800000","EPOCH":"2023-06-26T15:32:58.410528","TLE_LINE2":"2 55956  69.9982 257.4227 0002909 266.9391  93.1472 15.69906292 16361","FILE":"3943660","RA_OF_ASC_NODE":"257.4227","CLASSIFICATION_TYPE":"U","REF_FRAME":"TEME","EPHEMERIS_TYPE":"0","RCS_SIZE":"LARGE","COUNTRY_CODE":"US","MEAN_MOTION_DDOT":"0.0000000000000","MEAN_ELEMENT_THEORY":"SGP4","GP_ID":"234573944","INCLINATION":"69.9982","OBJECT_ID":"2023-037AU","PERIAPSIS":"357.207","MEAN_MOTION_DOT":"-0.00001751","SITE":"AFWTR","ECCENTRICITY":"0.00029090","APOAPSIS":"361.127","TIME_SYSTEM":"UTC","SEMIMAJOR_AXIS":"6737.302","CENTER_NAME":"EARTH","LAUNCH_DATE":"2023-03-17","REV_AT_EPOCH":"1636","TLE_LINE1":"1 55956U 23037AU  23177.64789827 -.00001751  00000-0 -12808-4 0  9995","OBJECT_TYPE":"PAYLOAD"},{"EPHEMERIS_TYPE":"0","COUNTRY_CODE":"US","RCS_SIZE":"LARGE","MEAN_ELEMENT_THEORY":"SGP4","MEAN_MOTION_DDOT":"0.0000000000000","GP_ID":"234573833","INCLINATION":"69.9983","OBJECT_ID":"2023-037AV","MEAN_MOTION_DOT":"-0.00001828","PERIAPSIS":"357.088","SITE":"AFWTR","APOAPSIS":"361.243","ECCENTRICITY":"0.00030840","TIME_SYSTEM":"UTC","SEMIMAJOR_AXIS":"6737.300","LAUNCH_DATE":"2023-03-17","CENTER_NAME":"EARTH","OBJECT_TYPE":"PAYLOAD","REV_AT_EPOCH":"1636","TLE_LINE1":"1 55957U 23037AV  23177.64874154 -.00001828  00000-0 -13445-4 0  9997","OBJECT_NAME":"STARLINK-5884","ARG_OF_PERICENTER":"269.7626","ELEMENT_SET_NO":"999","DECAY_DATE":null,"NORAD_CAT_ID":"55957","MEAN_ANOMALY":"90.3216","MEAN_MOTION":"15.69906875","PERIOD":"91.725","BSTAR":"-0.00001344500000","EPOCH":"2023-06-26T15:34:11.269056","FILE":"3943651","TLE_LINE2":"2 55957  69.9983 257.4266 0003084 269.7626  90.3216 15.69906875 16365","RA_OF_ASC_NODE":"257.4266","CLASSIFICATION_TYPE":"U","REF_FRAME":"TEME"},{"ARG_OF_PERICENTER":"272.6573","ELEMENT_SET_NO":"999","OBJECT_NAME":"STARLINK-5928","NORAD_CAT_ID":"55958","MEAN_ANOMALY":"87.4207","DECAY_DATE":null,"PERIOD":"91.724","MEAN_MOTION":"15.69925414","EPOCH":"2023-06-26T07:55:06.117888","BSTAR":"0.00000863580000","CLASSIFICATION_TYPE":"U","TLE_LINE2":"2 55958  69.9967 258.3200 0003633 272.6573  87.4207 15.69925414 16312","RA_OF_ASC_NODE":"258.3200","FILE":"3943364","REF_FRAME":"TEME","EPHEMERIS_TYPE":"0","RCS_SIZE":"LARGE","COUNTRY_CODE":"US","GP_ID":"234566718","MEAN_ELEMENT_THEORY":"SGP4","MEAN_MOTION_DDOT":"0.0000000000000","OBJECT_ID":"2023-037AW","INCLINATION":"69.9967","SITE":"AFWTR","PERIAPSIS":"356.665","MEAN_MOTION_DOT":"0.00000826","SEMIMAJOR_AXIS":"6737.247","TIME_SYSTEM":"UTC","ECCENTRICITY":"0.00036330","APOAPSIS":"361.560","TLE_LINE1":"1 55958U 23037AW  23177.32993192  .00000826  00000-0  86358-5 0  9996","REV_AT_EPOCH":"1631","OBJECT_TYPE":"PAYLOAD","CENTER_NAME":"EARTH","LAUNCH_DATE":"2023-03-17"}];
